#dP2021  7  4  0  0  0.00000000     289 ORBIT IGS14 BHN ESOC                    
## 2165      0.00000000   300.00000000 59399 0.0000000000000                    
+  116   G13G28G21G22G07G05G20G31G17G15G16G29G12G19G02G25G01                    
+        G30G24G27G06G09G03G32G26G08G10G04G18G23G14G11R09R11                    
+        R20R19R13R01R22R16R08R03R07R02R17R18R21R05R15R12R04                    
+        R24E11E12E19E18E14E26E24E30E08E09E01E02E07E03E04E05                    
+        E21E25E27E31E36E13E15E33C11C12C14C19C20C27C28C22C21                    
+        C29C30C23C24C26C25C32C33C35C34C36C37C46C45C44C43C41                    
+        C42C06C07C08C09C10C13C16C38C39C40J01J02J03  0  0  0                    
++         5  4  5  5  5  5  5  5  5  5  5  5  5  5  5  4  5                    
++         5  5  4  5  5  5  5  5  4  5  5  5  5  5  5  7  5                    
++         6  6  6  7  7  6  5  6  5  5  6  5  5  6  5  6  5                    
++         5  5  5  5  5  5  5  5  4  5  5  5  4  5  5  5  5                    
++         5  5  4  5  5  5  5  5  5  5  5  5  5  5  5  5  5                    
++         5  5  5  5  5  5  5  5  5  5  5  5  5  6  5  5  6                    
++         6  6  6  6  6  6  7  6  8  6  6  7  7  6  0  0  0                    
%c M  cc GPS ccc cccc cccc cccc cccc ccccc ccccc ccccc ccccc                    
%c cc cc ccc ccc cccc cccc cccc cccc ccccc ccccc ccccc ccccc                    
%f  0.0000000  0.000000000  0.00000000000  0.000000000000000                    
%f  0.0000000  0.000000000  0.00000000000  0.000000000000000                    
%i    0    0    0    0      0      0      0      0         0                    
%i    0    0    0    0      0      0      0      0         0                    
/* CCCCCCCCCCCCCCCCCCCCCCCCCCCCCCCCCCCCCCCCCCCCCCCCCCCCCCCCCCCCCCCCCCCCCCCCCCCCC
/* CCCCCCCCCCCCCCCCCCCCCCCCCCCCCCCCCCCCCCCCCCCCCCCCCCCCCCCCCCCCCCCCCCCCCCCCCCCCC
/* CCCCCCCCCCCCCCCCCCCCCCCCCCCCCCCCCCCCCCCCCCCCCCCCCCCCCCCCCCCCCCCCCCCCCCCCCCCCC
/* PCV:IGS14      OL/AL:EOT11A   NONE     YN ORB:CoN CLK:CoN                    
*  2021  7  4  8 25  0.00000000                                                 
PG13 -13061.517646  23032.588074   -632.483708    153.191628                    
PG28 -16333.594051    -50.909183 -20356.687405    543.789185                    
PG21    965.335892 -15248.128536 -20974.993283    129.130743                    
PG22  -5673.033062 -21631.371494 -14299.400284   -572.263773                    
PG07 -21320.741269  -7927.083918  14474.436033    194.184624                    
PG05    845.286170  20100.190927  17092.586623    -46.869202                    
PG20  -5415.137235  15846.738726  20625.127723    520.531909                    
PG31  24442.947741  -7818.880442   7634.493642   -126.699434                    
PG17 -16625.496880   3428.795487 -20001.577148    468.456702                    
PG15  -1669.387567  25386.281913  -7337.364426   -137.936048                    
PG16   6040.687757 -15985.996918  19956.851540   -351.554528                    
PG29   8800.126015  13523.546620  21035.013855   -374.635382                    
PG12   8838.953183  23841.263762  -8165.663856    -63.847840                    
PG19 -18324.487242  11601.937188 -15520.510030     21.796592                    
PG02 -17040.281477  14231.526777  15275.577055   -617.128508                    
PG25  17255.215775  20237.577464   2161.853250    167.396410                    
PG01  -7576.596054 -13694.627549 -21780.173494    638.756384                    
PG30 -26532.263795    450.243653   2934.906775   -446.726795                    
PG24   2668.436560  15672.766259 -21521.233994    160.537053                    
PG27  12197.377119 -23108.998319   3302.405300   -157.468551                    
PG06 -24959.155720   7020.331947   5962.154135     35.280262                    
PG09 -11206.398276 -11879.191776  20883.238013   -354.064106                    
PG03 -11225.614893 -23066.139961  -7195.789742   -210.376842                    
PG32  17204.126303  -6701.312437 -18914.163192     15.800218                    
PG26  13958.864524  -7443.693964  21297.019159    106.378206                    
PG08   4996.841276 -25015.380767  -6810.959303    -27.507342                    
PG10  19228.708877   5507.113789 -17493.661095   -155.155093                    
PG04  -2232.936778 -21288.925020  15694.047633   -201.587959                    
PG18  23014.531007   5907.149497  11933.362451    343.215704                    
PG23  19969.677450  15117.552829  -8945.316316     89.151788                    
PG14 -19021.535972  -5656.607414 -17680.499015     55.461222                    
PG11 -18622.002467  11650.722350  14914.089723      6.312650                    
PR09 -16603.897232 -14571.503155  12840.537019      1.173971                    
PR11 -17344.974454   1746.147598 -18614.633764    -18.192952                    
PR20  -2987.030697 -10278.978047 -23150.531760    -51.919173                    
PR19  15167.481358 -16261.398166 -12510.272122   -150.204392                    
PR13  16069.205013  14465.214426 -13542.031441    -57.205054                    
PR01  -2615.363199  23213.950923  10229.647457     81.845593                    
PR22 -21740.612451  13248.513821  -2265.192975   -120.913999                    
PR16   -832.953849 -12239.488978  22329.674216    -17.350358                    
PR08  -9066.192737  11551.291425  20920.301390    -59.787477                    
PR03  10962.008749   7486.454380 -21746.350088     38.861293                    
PR07 -11028.673196  -6657.210104  22048.399030    -42.133000                    
PR02   6493.738030  22442.452643 -10264.234428    484.758123                    
PR17  17937.844970  -2323.324336  18005.988083    438.134204                    
PR18  21752.214444 -12859.448776   3295.320054     82.245297                    
PR21 -18540.038194   3171.548144 -17222.322839   -221.300660                    
PR05   2160.082147 -23975.863921  -8392.016386     74.726793                    
PR15  16992.271306  -1975.965164  18942.890164    102.895158                    
PR12   -380.339676  11730.736149 -22618.917293    242.475238                    
PR04   8953.186723 -11466.705405 -20921.358650     94.226308                    
PR24   4086.384051  10225.614952  23016.575568     49.083016                    
PE11  20576.344649 -16160.121366 -13845.022210   5766.556890                    
PE12  28568.524672  -5590.544421   5307.478196   5128.224471                    
PE19  10917.300986  17981.262053 -20813.858167    318.276679                    
PE18 -20861.815086  -1631.099585 -23346.716433  -1630.831871                    
PE14  18232.775323  -8498.315346  15208.670246  -1488.359389                    
PE26      5.990006  16837.973514  24340.271104   1619.096881                    
PE24  10207.786418 -13142.801732  24470.490246   -989.360127                    
PE30 -22977.672212  -4586.632634 -18087.848679   2811.822868                    
PE08 -17713.534279   6279.471957  22871.131799   5975.802626                    
PE09  12730.686687 -24647.508763 -10342.674683   5612.032295                    
PE01  22370.451329  19328.754353   1448.742214  -1142.830561                    
PE02 -22416.951729 -19259.019798  -1570.454821    230.537551                    
PE07 -13008.230092  24431.089733  10484.871031   -557.549763                    
PE03 -12277.778076 -15859.531504  21778.535202   -448.924969                    
PE04  17862.198664  -5804.971249 -22868.578358   -806.035124                    
PE05    607.468799 -28532.553453   7873.161084   -267.899563                    
PE21   9595.105500  23184.055767 -15698.640940   -674.296218                    
PE25  -9402.579530 -23160.082780  15865.864123   -538.920708                    
PE27  -9308.835083  13839.392996 -24447.345948    -68.175479                    
PE31  22609.023261   3562.251053  18778.210135   -482.883236                    
PE36    957.281093 -16896.319041 -24288.126996   -229.717226                    
PE13 -20907.890995  16041.044789  13482.150148    418.577411                    
PE15 -28557.243964   5721.037743  -5296.588211    805.335345                    
PE33  19373.620190   7946.187359  20915.682505   -468.191317                    
PC11   5894.056113  15049.511485  22796.511468    437.396369                    
PC12 -10934.800323  22336.980150  12661.717697    822.695203                    
PC14  11152.185329  24816.271254  -6033.849416    838.728664                    
PC19 -15431.174985 -18154.110606  14573.776245    896.214741                    
PC20  -6284.858249 -27158.724637  -1635.559828   -855.441931                    
PC27  17753.783813 -21144.644259  -4027.891892    558.702233                    
PC28  22726.102973  -9368.764944  13215.201243    -54.758825                    
PC22 -15939.079804   1616.359962  22855.140366   -948.621052                    
PC21  -7192.842832  20292.210534  17758.631226   -935.148320                    
PC29 -14622.129026  -7353.701401 -22613.465427    414.769651                    
PC30   2136.178309 -20797.872959 -18483.132975    472.841540                    
PC23  26384.428460    467.795536   9082.227887   -958.070106                    
PC24   6230.860648  17290.613379 -21004.329174   -922.681063                    
PC26 -12882.974113  12522.848290 -21349.592539    883.586860                    
PC25  24045.237998  11752.610899  -7936.321080   -891.206128                    
PC32   7019.569868 -20374.391807 -17721.540370   -924.164448                    
PC33  15501.253839  18116.630699 -14473.982227   -940.205946                    
PC35 -22394.590735   9810.803596 -13492.046148   -203.354456                    
PC34  -1480.931335  20504.912724  18866.597765   -635.951248                    
PC36 -23529.300201 -12515.395766   8314.081189   -730.596136                    
PC37  14122.412637 -11738.606642  21038.589494   -868.018987                    
PC46  -7413.155024 -17197.050719  20692.188297    194.768848                    
PC45 -26324.593975   -380.093129  -9221.139198    484.251422                    
PC44 -17178.819071  21686.691501   3764.539843    271.943011                    
PC43  14254.688486   7997.494228  22604.703899   -805.720773                    
PC41  16020.540762  -1330.486083 -22760.002519   -954.904694                    
PC42   5720.790298  27192.992733   2481.046386   -916.803354                    
PC06 -23033.185481  34796.987412  -7214.217226    581.481651                    
PC07  -7582.868927  32443.846027 -25278.603920    158.677824                    
PC08 -14535.971627  18364.887260  35097.871515   -900.339907                    
PC09 -11943.576475  34649.669614 -20924.027901    399.932594                    
PC10   3638.392748  38397.115588 -16220.529330    -22.569173                    
PC13  -1495.133508  22628.106219  35647.547245    323.815581                    
PC16 -20781.454370  35442.011984  -9853.269607   -939.199238                    
PC38 -13686.899778  21068.780169  33838.524470    159.395164                    
PC39 -17481.345592  36882.256340 -10868.800262     32.131368                    
PC40  -1412.423023  36530.204714 -20847.937517    177.156275                    
PJ01 -27437.931984  25040.780881  24904.486138   -408.408810                    
PJ02 -24372.572416  16341.298040 -25762.040364     -0.576300                    
PJ03 -27107.226828  32478.541403   5089.292569     -9.983326                    
EOF                                                                             
